[{"OBJECT_NAME":"ONEWEB-0577","OBJECT_ID":"2023-043W","EPOCH":"2025-10-16T01:00:02.950848","MEAN_MOTION":13.16590964,"ECCENTRICITY":0.0001544,"INCLINATION":87.8978,"RA_OF_ASC_NODE":277.408,"ARG_OF_PERICENTER":65.5594,"MEAN_ANOMALY":294.5698,"EPHEMERIS_TYPE":0,"CLASSIFICATION_TYPE":"U","NORAD_CAT_ID":56066,"ELEMENT_SET_NO":999,"REV_AT_EPOCH":12686,"BSTAR":0.0010208,"MEAN_MOTION_DOT":4.03e-6,"MEAN_MOTION_DDOT":0},{"OBJECT_NAME":"ONEWEB-0578","OBJECT_ID":"2023-043X","EPOCH":"2025-10-16T03:12:47.967264","MEAN_MOTION":13.21855627,"ECCENTRICITY":0.0002033,"INCLINATION":87.9169,"RA_OF_ASC_NODE":292.6701,"ARG_OF_PERICENTER":84.572,"MEAN_ANOMALY":275.5646,"EPHEMERIS_TYPE":0,"CLASSIFICATION_TYPE":"U","NORAD_CAT_ID":56067,"ELEMENT_SET_NO":999,"REV_AT_EPOCH":12599,"BSTAR":0.00026554,"MEAN_MOTION_DOT":1.23e-6,"MEAN_MOTION_DDOT":0},{"OBJECT_NAME":"ONEWEB-0579","OBJECT_ID":"2023-043Y","EPOCH":"2025-10-16T02:58:50.467008","MEAN_MOTION":13.21893164,"ECCENTRICITY":0.000177,"INCLINATION":87.9171,"RA_OF_ASC_NODE":292.6592,"ARG_OF_PERICENTER":98.0941,"MEAN_ANOMALY":262.0394,"EPHEMERIS_TYPE":0,"CLASSIFICATION_TYPE":"U","NORAD_CAT_ID":56068,"ELEMENT_SET_NO":999,"REV_AT_EPOCH":12600,"BSTAR":0.00039405,"MEAN_MOTION_DOT":1.76e-6,"MEAN_MOTION_DDOT":0},{"OBJECT_NAME":"ONEWEB-0581","OBJECT_ID":"2023-043Z","EPOCH":"2025-10-15T21:30:17.946720","MEAN_MOTION":13.16593884,"ECCENTRICITY":0.00014638,"INCLINATION":87.8971,"RA_OF_ASC_NODE":277.4528,"ARG_OF_PERICENTER":80.7033,"MEAN_ANOMALY":279.4263,"EPHEMERIS_TYPE":0,"CLASSIFICATION_TYPE":"U","NORAD_CAT_ID":56069,"ELEMENT_SET_NO":999,"REV_AT_EPOCH":12681,"BSTAR":4.8549522e-5,"MEAN_MOTION_DOT":3.1e-7,"MEAN_MOTION_DDOT":0},{"OBJECT_NAME":"ONEWEB-0609","OBJECT_ID":"2023-043AA","EPOCH":"2025-10-16T02:46:44.498784","MEAN_MOTION":13.15548299,"ECCENTRICITY":0.0001929,"INCLINATION":87.8977,"RA_OF_ASC_NODE":307.927,"ARG_OF_PERICENTER":94.9045,"MEAN_ANOMALY":265.2305,"EPHEMERIS_TYPE":0,"CLASSIFICATION_TYPE":"U","NORAD_CAT_ID":56070,"ELEMENT_SET_NO":999,"REV_AT_EPOCH":12434,"BSTAR":0.00030072,"MEAN_MOTION_DOT":1.26e-6,"MEAN_MOTION_DDOT":0},{"OBJECT_NAME":"ONEWEB-0613","OBJECT_ID":"2023-043AB","EPOCH":"2025-10-16T02:39:54.454752","MEAN_MOTION":13.15550442,"ECCENTRICITY":0.000186,"INCLINATION":87.8974,"RA_OF_ASC_NODE":307.9416,"ARG_OF_PERICENTER":102.0512,"MEAN_ANOMALY":258.0827,"EPHEMERIS_TYPE":0,"CLASSIFICATION_TYPE":"U","NORAD_CAT_ID":56071,"ELEMENT_SET_NO":999,"REV_AT_EPOCH":12434,"BSTAR":0.00010576,"MEAN_MOTION_DOT":5.3e-7,"MEAN_MOTION_DDOT":0},{"OBJECT_NAME":"ONEWEB-0630","OBJECT_ID":"2023-043AC","EPOCH":"2025-10-16T02:33:03.420576","MEAN_MOTION":13.15547583,"ECCENTRICITY":0.0001862,"INCLINATION":87.8969,"RA_OF_ASC_NODE":307.9147,"ARG_OF_PERICENTER":103.0102,"MEAN_ANOMALY":257.1236,"EPHEMERIS_TYPE":0,"CLASSIFICATION_TYPE":"U","NORAD_CAT_ID":56072,"ELEMENT_SET_NO":999,"REV_AT_EPOCH":12433,"BSTAR":5.8197e-5,"MEAN_MOTION_DOT":3.5e-7,"MEAN_MOTION_DDOT":0},{"OBJECT_NAME":"ONEWEB-0632","OBJECT_ID":"2023-043AD","EPOCH":"2025-10-16T02:26:13.132896","MEAN_MOTION":13.15547996,"ECCENTRICITY":0.000164,"INCLINATION":87.8966,"RA_OF_ASC_NODE":307.935,"ARG_OF_PERICENTER":92.9513,"MEAN_ANOMALY":267.1805,"EPHEMERIS_TYPE":0,"CLASSIFICATION_TYPE":"U","NORAD_CAT_ID":56073,"ELEMENT_SET_NO":999,"REV_AT_EPOCH":12433,"BSTAR":-2.1184e-5,"MEAN_MOTION_DOT":5.0e-8,"MEAN_MOTION_DDOT":0},{"OBJECT_NAME":"ONEWEB-0633","OBJECT_ID":"2023-043AE","EPOCH":"2025-10-16T02:17:04.841088","MEAN_MOTION":13.15547444,"ECCENTRICITY":0.0002061,"INCLINATION":87.897,"RA_OF_ASC_NODE":307.8998,"ARG_OF_PERICENTER":104.8233,"MEAN_ANOMALY":255.3126,"EPHEMERIS_TYPE":0,"CLASSIFICATION_TYPE":"U","NORAD_CAT_ID":56074,"ELEMENT_SET_NO":999,"REV_AT_EPOCH":12431,"BSTAR":1.0515e-5,"MEAN_MOTION_DOT":1.7e-7,"MEAN_MOTION_DDOT":0},{"OBJECT_NAME":"ONEWEB-0634","OBJECT_ID":"2023-043AF","EPOCH":"2025-10-16T01:56:32.574912","MEAN_MOTION":13.15547883,"ECCENTRICITY":0.0002185,"INCLINATION":87.8978,"RA_OF_ASC_NODE":307.9488,"ARG_OF_PERICENTER":93.6754,"MEAN_ANOMALY":266.4626,"EPHEMERIS_TYPE":0,"CLASSIFICATION_TYPE":"U","NORAD_CAT_ID":56075,"ELEMENT_SET_NO":999,"REV_AT_EPOCH":12430,"BSTAR":-0.00012024,"MEAN_MOTION_DOT":-3.2e-7,"MEAN_MOTION_DDOT":0},{"OBJECT_NAME":"ONEWEB-0635","OBJECT_ID":"2023-043AG","EPOCH":"2025-10-16T01:49:41.492352","MEAN_MOTION":13.15550049,"ECCENTRICITY":0.0001556,"INCLINATION":87.8968,"RA_OF_ASC_NODE":307.9072,"ARG_OF_PERICENTER":89.7086,"MEAN_ANOMALY":270.4222,"EPHEMERIS_TYPE":0,"CLASSIFICATION_TYPE":"U","NORAD_CAT_ID":56076,"ELEMENT_SET_NO":999,"REV_AT_EPOCH":12433,"BSTAR":-5.1241e-5,"MEAN_MOTION_DOT":-6.0e-8,"MEAN_MOTION_DDOT":0},{"OBJECT_NAME":"ONEWEB-0636","OBJECT_ID":"2023-043AH","EPOCH":"2025-10-16T03:27:48.981888","MEAN_MOTION":13.15547122,"ECCENTRICITY":0.0001637,"INCLINATION":87.897,"RA_OF_ASC_NODE":307.9119,"ARG_OF_PERICENTER":90.1377,"MEAN_ANOMALY":269.9941,"EPHEMERIS_TYPE":0,"CLASSIFICATION_TYPE":"U","NORAD_CAT_ID":56077,"ELEMENT_SET_NO":999,"REV_AT_EPOCH":12432,"BSTAR":-2.6452e-5,"MEAN_MOTION_DOT":3.0e-8,"MEAN_MOTION_DDOT":0},{"OBJECT_NAME":"ONEWEB-0637","OBJECT_ID":"2023-043AJ","EPOCH":"2025-10-16T03:18:39.961728","MEAN_MOTION":13.15548584,"ECCENTRICITY":0.0001881,"INCLINATION":87.8973,"RA_OF_ASC_NODE":307.9272,"ARG_OF_PERICENTER":83.2223,"MEAN_ANOMALY":276.9121,"EPHEMERIS_TYPE":0,"CLASSIFICATION_TYPE":"U","NORAD_CAT_ID":56078,"ELEMENT_SET_NO":999,"REV_AT_EPOCH":12434,"BSTAR":0.00016245,"MEAN_MOTION_DOT":7.4e-7,"MEAN_MOTION_DDOT":0},{"OBJECT_NAME":"ONEWEB-0647","OBJECT_ID":"2023-043AK","EPOCH":"2025-10-16T03:11:50.829216","MEAN_MOTION":13.15547026,"ECCENTRICITY":0.0001688,"INCLINATION":87.8974,"RA_OF_ASC_NODE":307.9417,"ARG_OF_PERICENTER":96.2851,"MEAN_ANOMALY":263.8471,"EPHEMERIS_TYPE":0,"CLASSIFICATION_TYPE":"U","NORAD_CAT_ID":56079,"ELEMENT_SET_NO":999,"REV_AT_EPOCH":12433,"BSTAR":0.00023555,"MEAN_MOTION_DOT":1.01e-6,"MEAN_MOTION_DDOT":0},{"OBJECT_NAME":"ONEWEB-0651","OBJECT_ID":"2023-043AL","EPOCH":"2025-10-16T03:04:59.490048","MEAN_MOTION":13.15550117,"ECCENTRICITY":0.0001672,"INCLINATION":87.8976,"RA_OF_ASC_NODE":307.9348,"ARG_OF_PERICENTER":85.7951,"MEAN_ANOMALY":274.337,"EPHEMERIS_TYPE":0,"CLASSIFICATION_TYPE":"U","NORAD_CAT_ID":56080,"ELEMENT_SET_NO":999,"REV_AT_EPOCH":12553,"BSTAR":0.00033119,"MEAN_MOTION_DOT":1.38e-6,"MEAN_MOTION_DDOT":0},{"OBJECT_NAME":"ONEWEB-0718","OBJECT_ID":"2023-043AM","EPOCH":"2025-10-16T02:58:10.349760","MEAN_MOTION":13.15546975,"ECCENTRICITY":0.0002427,"INCLINATION":87.8975,"RA_OF_ASC_NODE":307.9165,"ARG_OF_PERICENTER":91.4556,"MEAN_ANOMALY":268.6853,"EPHEMERIS_TYPE":0,"CLASSIFICATION_TYPE":"U","NORAD_CAT_ID":56081,"ELEMENT_SET_NO":999,"REV_AT_EPOCH":12434,"BSTAR":0.00026401,"MEAN_MOTION_DOT":1.12e-6,"MEAN_MOTION_DDOT":0},{"OBJECT_NAME":"ONEWEB-0561","OBJECT_ID":"2023-068A","EPOCH":"2025-10-16T02:37:31.484352","MEAN_MOTION":13.20770988,"ECCENTRICITY":0.0001384,"INCLINATION":87.9212,"RA_OF_ASC_NODE":323.1307,"ARG_OF_PERICENTER":97.8416,"MEAN_ANOMALY":262.2874,"EPHEMERIS_TYPE":0,"CLASSIFICATION_TYPE":"U","NORAD_CAT_ID":56710,"ELEMENT_SET_NO":999,"REV_AT_EPOCH":11728,"BSTAR":-0.00030699,"MEAN_MOTION_DOT":-1.12e-6,"MEAN_MOTION_DDOT":0},{"OBJECT_NAME":"ONEWEB-0668","OBJECT_ID":"2023-068B","EPOCH":"2025-10-15T16:05:24.293184","MEAN_MOTION":13.16596722,"ECCENTRICITY":0.00023575,"INCLINATION":87.8987,"RA_OF_ASC_NODE":277.4765,"ARG_OF_PERICENTER":81.591,"MEAN_ANOMALY":278.5488,"EPHEMERIS_TYPE":0,"CLASSIFICATION_TYPE":"U","NORAD_CAT_ID":56711,"ELEMENT_SET_NO":999,"REV_AT_EPOCH":11960,"BSTAR":0.00032063618,"MEAN_MOTION_DOT":1.35e-6,"MEAN_MOTION_DDOT":0},{"OBJECT_NAME":"ONEWEB-0676","OBJECT_ID":"2023-068C","EPOCH":"2025-10-16T02:33:32.120928","MEAN_MOTION":13.16595185,"ECCENTRICITY":0.0001727,"INCLINATION":87.8977,"RA_OF_ASC_NODE":277.405,"ARG_OF_PERICENTER":87.13,"MEAN_ANOMALY":273.0029,"EPHEMERIS_TYPE":0,"CLASSIFICATION_TYPE":"U","NORAD_CAT_ID":56712,"ELEMENT_SET_NO":999,"REV_AT_EPOCH":11958,"BSTAR":0.00038296,"MEAN_MOTION_DOT":1.59e-6,"MEAN_MOTION_DDOT":0},{"OBJECT_NAME":"ONEWEB-0677","OBJECT_ID":"2023-068D","EPOCH":"2025-10-16T02:21:37.774368","MEAN_MOTION":13.20770847,"ECCENTRICITY":0.0001844,"INCLINATION":87.9217,"RA_OF_ASC_NODE":323.1106,"ARG_OF_PERICENTER":90.6813,"MEAN_ANOMALY":269.4532,"EPHEMERIS_TYPE":0,"CLASSIFICATION_TYPE":"U","NORAD_CAT_ID":56713,"ELEMENT_SET_NO":999,"REV_AT_EPOCH":11758,"BSTAR":0.00018124,"MEAN_MOTION_DOT":8.7e-7,"MEAN_MOTION_DDOT":0},{"OBJECT_NAME":"ONEWEB-0678","OBJECT_ID":"2023-068E","EPOCH":"2025-10-16T02:12:31.502592","MEAN_MOTION":13.15547295,"ECCENTRICITY":0.0001733,"INCLINATION":87.8976,"RA_OF_ASC_NODE":307.8964,"ARG_OF_PERICENTER":103.7955,"MEAN_ANOMALY":256.3368,"EPHEMERIS_TYPE":0,"CLASSIFICATION_TYPE":"U","NORAD_CAT_ID":56714,"ELEMENT_SET_NO":999,"REV_AT_EPOCH":11719,"BSTAR":-0.0002944,"MEAN_MOTION_DOT":-9.8e-7,"MEAN_MOTION_DDOT":0},{"OBJECT_NAME":"ONEWEB-0679","OBJECT_ID":"2023-068F","EPOCH":"2025-10-15T21:55:33.803616","MEAN_MOTION":13.16593548,"ECCENTRICITY":0.0001958,"INCLINATION":87.8971,"RA_OF_ASC_NODE":277.4304,"ARG_OF_PERICENTER":71.6501,"MEAN_ANOMALY":288.4843,"EPHEMERIS_TYPE":0,"CLASSIFICATION_TYPE":"U","NORAD_CAT_ID":56715,"ELEMENT_SET_NO":999,"REV_AT_EPOCH":11958,"BSTAR":5.0039e-5,"MEAN_MOTION_DOT":3.2e-7,"MEAN_MOTION_DDOT":0},{"OBJECT_NAME":"ONEWEB-0680","OBJECT_ID":"2023-068G","EPOCH":"2025-10-16T03:03:30.040992","MEAN_MOTION":13.21880951,"ECCENTRICITY":0.0002356,"INCLINATION":87.9168,"RA_OF_ASC_NODE":292.6569,"ARG_OF_PERICENTER":78.9832,"MEAN_ANOMALY":281.1567,"EPHEMERIS_TYPE":0,"CLASSIFICATION_TYPE":"U","NORAD_CAT_ID":56716,"ELEMENT_SET_NO":999,"REV_AT_EPOCH":11885,"BSTAR":0.00022136,"MEAN_MOTION_DOT":1.05e-6,"MEAN_MOTION_DDOT":0},{"OBJECT_NAME":"ONEWEB-0681","OBJECT_ID":"2023-068H","EPOCH":"2025-10-16T02:32:54.661344","MEAN_MOTION":13.21744023,"ECCENTRICITY":0.0001037,"INCLINATION":87.9167,"RA_OF_ASC_NODE":292.6792,"ARG_OF_PERICENTER":62.1485,"MEAN_ANOMALY":297.9754,"EPHEMERIS_TYPE":0,"CLASSIFICATION_TYPE":"U","NORAD_CAT_ID":56717,"ELEMENT_SET_NO":999,"REV_AT_EPOCH":11884,"BSTAR":-4.4215e-5,"MEAN_MOTION_DOT":-5.0e-8,"MEAN_MOTION_DDOT":0}]
